NORAD_CAT_ID,OBJECT_NAME,OBJECT_TYPE,EPOCH,MEAN_MOTION,ECCENTRICITY,INCLINATION,RA_OF_ASC_NODE,ARG_OF_PERICENTER,MEAN_ANOMALY,BSTAR,MEAN_MOTION_DOT,MEAN_MOTION_DDOT,TLE_LINE0,TLE_LINE1,TLE_LINE2,SEMIMAJOR_AXIS,PERIOD,APOGEE,PERIGEE,DECAYED
56774.0,STARLINK-6190,PAYLOAD,2024-08-02 15:13:01,14.98325053,0.000292,70.0002,36.9702,267.2255,92.857,5.2153e-05,5.29e-06,0.0,0 STARLINK-6190,1 56774U 23078H   24215.63404027  .00000529  00000-0  52153-4 0  9995,2 56774  70.0002  36.9702 0002920 267.2255  92.8570 14.98325053 64707,6950.208,96.107,574.103,570.044,0.0
56774.0,STARLINK-6190,PAYLOAD,2024-08-02 21:37:33,14.98325668,0.0002969,70.0002,36.2964,270.3438,89.7381,4.7439e-05,4.73e-06,0.0,0 STARLINK-6190,1 56774U 23078H   24215.90108081  .00000473  00000-0  47439-4 0  9995,2 56774  70.0002  36.2964 0002969 270.3438  89.7381 14.98325668 64742,6950.206,96.107,574.135,570.008,0.0
56774.0,STARLINK-6190,PAYLOAD,2024-08-03 12:02:45,14.983336,0.00031,70.0002,34.7828,270.9029,89.1774,1.6697e-05,1.06e-06,0.0,0 STARLINK-6190,1 56774U 23078H   24216.50191659  .00000106  00000-0  16697-4 0  9990,2 56774  70.0002  34.7828 0003100 270.9029  89.1774 14.98333600 65098,6950.182,96.107,574.201,569.892,0.0
56774.0,STARLINK-6190,PAYLOAD,2024-08-03 15:15:01,14.98336102,0.0003058,70.0003,34.4449,271.0164,89.0644,1.9105e-05,1.35e-06,0.0,0 STARLINK-6190,1 56774U 23078H   24216.63543441  .00000135  00000-0  19105-4 0  9993,2 56774  70.0003  34.4449 0003058 271.0164  89.0644 14.98336102 64857,6950.174,96.107,574.164,569.914,0.0
56774.0,STARLINK-6190,PAYLOAD,2024-08-03 21:39:33,14.98332379,0.000298,70.0003,33.772,269.5401,90.5416,0.00020119,2.309e-05,0.0,0 STARLINK-6190,1 56774U 23078H   24216.90247124  .00002309  00000-0  20119-3 0  9993,2 56774  70.0003  33.7720 0002980 269.5401  90.5416 14.98332379 64890,6950.186,96.107,574.122,569.979,0.0
56774.0,STARLINK-6190,PAYLOAD,2024-08-04 12:04:46,14.98325624,0.0003019,70.0004,32.2571,271.5202,88.5612,3.0188e-05,2.67e-06,0.0,0 STARLINK-6190,1 56774U 23078H   24217.50331938  .00000267  00000-0  30188-4 0  9996,2 56774  70.0004  32.2571 0003019 271.5202  88.5612 14.98325624 65245,6950.206,96.107,574.17,569.973,0.0
56774.0,STARLINK-6190,PAYLOAD,2024-08-04 13:40:54,14.98326299,0.0003013,70.0005,32.0887,271.3627,88.7187,3.6529e-05,3.43e-06,0.0,0 STARLINK-6190,1 56774U 23078H   24217.57007891  .00000343  00000-0  36529-4 0  9991,2 56774  70.0005  32.0887 0003013 271.3627  88.7187 14.98326299 64996,6950.204,96.107,574.163,569.975,0.0
56774.0,STARLINK-6190,PAYLOAD,2024-08-04 20:05:26,14.98334714,0.0002832,70.0005,31.4153,269.7107,90.3727,9.7949e-05,1.076e-05,0.0,0 STARLINK-6190,1 56774U 23078H   24217.83711237  .00001076  00000-0  97949-4 0  9993,2 56774  70.0005  31.4153 0002832 269.7107  90.3727 14.98334714 65291,6950.178,96.107,574.012,570.075,0.0
56774.0,STARLINK-6190,PAYLOAD,2024-08-04 21:41:34,14.98336212,0.0002965,70.0003,31.247,271.0848,88.9971,0.00014097,1.59e-05,0.0,0 STARLINK-6190,1 56774U 23078H   24217.90387019  .00001590  00000-0  14097-3 0  9991,2 56774  70.0003  31.2470 0002965 271.0848  88.9971 14.98336212 65046,6950.174,96.107,574.099,569.978,0.0
56774.0,STARLINK-6190,PAYLOAD,2024-08-05 20:07:27,14.98319504,0.0002646,70.0008,28.8906,267.782,92.3036,0.00029594,3.439e-05,0.0,0 STARLINK-6190,1 56774U 23078H   24218.83851605  .00003439  00000-0  29594-3 0  9993,2 56774  70.0008  28.8906 0002646 267.7820  92.3036 14.98319504 65445,6950.225,96.108,573.929,570.251,0.0
56774.0,STARLINK-6190,PAYLOAD,2024-08-05 21:43:35,14.98336806,0.0002899,70.0008,28.7223,271.2832,88.7995,2.924e-05,2.56e-06,0.0,0 STARLINK-6190,1 56774U 23078H   24218.90527046  .00000256  00000-0  29240-4 0  9993,2 56774  70.0008  28.7223 0002899 271.2832  88.7995 14.98336806 65198,6950.172,96.107,574.052,570.022,0.0
56774.0,STARLINK-6190,PAYLOAD,2024-08-06 13:44:56,14.98327739,0.0002757,70.0008,27.0392,271.1657,88.9186,-1.1716e-05,-2.33e-06,0.0,0 STARLINK-6190,1 56774U 23078H   24219.57287735 -.00000233  00000-0 -11716-4 0  9991,2 56774  70.0008  27.0392 0002757 271.1657  88.9186 14.98327739 65294,6950.2,96.107,573.981,570.149,0.0
56774.0,STARLINK-6190,PAYLOAD,2024-08-06 20:09:28,14.98337177,0.0002679,70.0012,26.3664,269.9965,90.0887,-8.6372e-05,-1.124e-05,0.0,0 STARLINK-6190,1 56774U 23078H   24219.83991280 -.00001124  00000-0 -86372-4 0  9997,2 56774  70.0012  26.3664 0002679 269.9965  90.0887 14.98337177 65595,6950.171,96.107,573.898,570.174,0.0
56774.0,STARLINK-6190,PAYLOAD,2024-08-07 12:10:49,14.9833276,0.0002796,70.0012,24.6834,266.8302,93.2537,2.3098e-05,1.83e-06,0.0,0 STARLINK-6190,1 56774U 23078H   24220.50751238  .00000183  00000-0  23098-4 0  9998,2 56774  70.0012  24.6834 0002796 266.8302  93.2537 14.98332760 65439,6950.184,96.107,573.993,570.106,0.0
56774.0,STARLINK-6190,PAYLOAD,2024-08-07 20:11:29,14.98332519,0.0002795,70.0014,23.8419,265.8011,94.2829,2.3185e-05,1.84e-06,0.0,0 STARLINK-6190,1 56774U 23078H   24220.84131212  .00000184  00000-0  23185-4 0  9997,2 56774  70.0014  23.8419 0002795 265.8011  94.2829 14.98332519 65747,6950.185,96.107,573.993,570.108,0.0
56774.0,STARLINK-6190,PAYLOAD,2024-08-08 13:48:58,14.98330405,0.0002774,70.002,21.9903,261.1082,98.9763,8.8537e-05,9.64e-06,0.0,0 STARLINK-6190,1 56774U 23078H   24221.57567202  .00000964  00000-0  88537-4 0  9998,2 56774  70.0020  21.9903 0002774 261.1082  98.9763 14.98330405 65598,6950.192,96.107,573.985,570.129,0.0
56774.0,STARLINK-6190,PAYLOAD,2024-08-08 20:13:29,14.98348207,0.0002789,70.0019,21.3174,260.0692,100.0152,-0.00017215,-2.147e-05,0.0,0 STARLINK-6190,1 56774U 23078H   24221.84270539 -.00002147  00000-0 -17215-3 0  9993,2 56774  70.0019  21.3174 0002789 260.0692 100.0152 14.98348207 65890,6950.137,96.106,573.94,570.063,0.0
56774.0,STARLINK-6190,PAYLOAD,2024-08-09 04:14:10,14.98330046,0.0003023,70.0011,20.4739,271.6873,88.394,0.00013607,1.531e-05,0.0,0 STARLINK-6190,1 56774U 23078H   24222.17651148  .00001531  00000-0  13607-3 0  9994,2 56774  70.0011  20.4739 0003023 271.6873  88.3940 14.98330046 65941,6950.193,96.107,574.159,569.957,0.0
56774.0,STARLINK-6190,PAYLOAD,2024-08-09 13:50:59,14.98331411,0.0002981,70.0014,19.463,268.1306,91.9512,2.8366e-05,2.46e-06,0.0,0 STARLINK-6190,1 56774U 23078H   24222.57707223  .00000246  00000-0  28366-4 0  9995,2 56774  70.0014  19.4630 0002981 268.1306  91.9512 14.98331411 65746,6950.189,96.107,574.125,569.982,0.0
56774.0,STARLINK-6190,PAYLOAD,2024-08-09 20:15:34,14.98296751,0.0002962,70.0014,18.7905,270.3037,89.7782,-0.000354,-4.311e-05,0.0,0 STARLINK-6190,1 56774U 23078H   24222.84414687 -.00004311  00000-0 -35400-3 0  9999,2 56774  70.0014  18.7905 0002962 270.3037  89.7782 14.98296751 66043,6950.296,96.109,574.219,570.102,0.0
56774.0,STARLINK-6190,PAYLOAD,2024-08-10 12:16:54,14.98314521,0.0002894,70.002,17.1079,263.9264,96.1565,-0.00011894,-1.511e-05,0.0,0 STARLINK-6190,1 56774U 23078H   24223.51173815 -.00001511  00000-0 -11894-3 0  9999,2 56774  70.0020  17.1079 0002894 263.9264  96.1565 14.98314521 66147,6950.241,96.108,574.117,570.094,0.0
56774.0,STARLINK-6190,PAYLOAD,2024-08-10 13:53:02,14.98316277,0.0002756,70.0024,16.9399,262.3943,97.6903,-8.5823e-05,-1.116e-05,0.0,0 STARLINK-6190,1 56774U 23078H   24223.57849718 -.00001116  00000-0 -85823-4 0  9992,2 56774  70.0024  16.9399 0002756 262.3943  97.6903 14.98316277 65890,6950.235,96.108,574.016,570.185,0.0
56774.0,STARLINK-6190,PAYLOAD,2024-08-10 20:17:33,14.98330361,0.000263,70.0022,16.2685,258.0699,102.0165,6.0376e-05,6.28e-06,0.0,0 STARLINK-6190,1 56774U 23078H   24223.84552642  .00000628  00000-0  60376-4 0  9990,2 56774  70.0022  16.2685 0002630 258.0699 102.0165 14.98330361 66195,6950.192,96.107,573.885,570.229,0.0
56774.0,STARLINK-6190,PAYLOAD,2024-08-11 10:42:45,14.98341313,0.0002698,70.0023,14.751,272.1281,87.957,0.00027034,3.135e-05,0.0,0 STARLINK-6190,1 56774U 23078H   24224.44635524  .00003135  00000-0  27034-3 0  9997,2 56774  70.0023  14.7510 0002698 272.1281  87.9570 14.98341313 66284,6950.158,96.106,573.898,570.148,0.0
56774.0,STARLINK-6190,PAYLOAD,2024-08-11 20:19:32,14.98355986,0.0002624,70.0029,13.743,271.072,89.0138,0.00039614,4.64e-05,0.0,0 STARLINK-6190,1 56774U 23078H   24224.84690349  .00004640  00000-0  39614-3 0  9996,2 56774  70.0029  13.7430 0002624 271.0720  89.0138 14.98355986 66346,6950.113,96.105,573.801,570.154,0.0
56774.0,STARLINK-6190,PAYLOAD,2024-08-12 09:08:37,14.98349,0.0001944,70.004,12.3973,259.8835,100.2105,0.00026706,3.097e-05,0.0,0 STARLINK-6190,1 56774U 23078H   24225.38099508  .00003097  00000-0  26706-3 0  9999,2 56774  70.0040  12.3973 0001944 259.8835 100.2105 14.98349000 66420,6950.134,96.106,573.35,570.648,0.0
56774.0,STARLINK-6190,PAYLOAD,2024-08-12 20:21:33,14.98358898,0.0002075,70.003,11.2182,267.786,92.3062,0.00035917,4.198e-05,0.0,0 STARLINK-6190,1 56774U 23078H   24225.84830437  .00004198  00000-0  35917-3 0  9991,2 56774  70.0030  11.2182 0002075 267.7860  92.3062 14.98358898 66238,6950.104,96.105,573.411,570.526,0.0
56774.0,STARLINK-6190,PAYLOAD,2024-08-13 02:46:07,14.98324223,0.0002349,70.0031,10.5435,275.1098,84.9793,-0.00041383,-5.026e-05,0.0,0 STARLINK-6190,1 56774U 23078H   24226.11535964 -.00005026  00000-0 -41383-3 0  9996,2 56774  70.0031  10.5435 0002349 275.1098  84.9793 14.98324223 66538,6950.211,96.107,573.708,570.443,0.0
56774.0,STARLINK-6190,PAYLOAD,2024-08-13 10:46:48,14.98302573,0.0003113,70.0007,9.7021,271.3181,88.7621,-0.00098288,-0.00011793,0.0,0 STARLINK-6190,1 56774U 23078H   24226.44917059 -.00011793  00000-0 -98288-3 0  9995,2 56774  70.0007   9.7021 0003113 271.3181  88.7621 14.98302573 66584,6950.278,96.109,574.306,569.979,0.0
56774.0,STARLINK-6190,PAYLOAD,2024-08-13 15:35:12,14.98303052,0.0002891,70.0019,9.1979,269.769,90.3138,-0.00085516,-0.00010274,0.0,0 STARLINK-6190,1 56774U 23078H   24226.64945368 -.00010274  00000-0 -85516-3 0  9994,2 56774  70.0019   9.1979 0002891 269.7690  90.3138 14.98303052 66351,6950.276,96.109,574.151,570.132,0.0
